NORAD_CAT_ID,OBJECT_NAME,OBJECT_TYPE,EPOCH,MEAN_MOTION,ECCENTRICITY,INCLINATION,RA_OF_ASC_NODE,ARG_OF_PERICENTER,MEAN_ANOMALY,BSTAR,MEAN_MOTION_DOT,MEAN_MOTION_DDOT,TLE_LINE0,TLE_LINE1,TLE_LINE2,SEMIMAJOR_AXIS,PERIOD,APOGEE,PERIGEE,DECAYED
53013.0,STARLINK-4177,PAYLOAD,2022-12-23 05:52:23,15.0884193,0.0001797,53.2177,307.4427,47.9137,312.2008,0.00044284,6.767e-05,0.0,0 STARLINK-4177,1 53013U 22076AD  22357.24471224  .00006767  00000-0  44284-3 0  9995,2 53013  53.2177 307.4427 0001797  47.9137 312.2008 15.08841930 25980,6917.874,95.437,540.9830000000002,538.496,0.0
53013.0,STARLINK-4177,PAYLOAD,2022-12-23 13:49:19,15.08835069,0.0001947,53.2176,305.9558,49.657,310.4592,0.00010729,1.42e-05,0.0,0 STARLINK-4177,1 53013U 22076AD  22357.57591493  .00001420  00000-0  10729-3 0  9990,2 53013  53.2176 305.9558 0001947  49.6570 310.4592 15.08835069 26507,6917.895,95.438,541.107,538.414,0.0
53013.0,STARLINK-4177,PAYLOAD,2022-12-24 07:18:33,15.08851605,0.0002013,53.2169,302.6843,49.8937,310.2231,0.00041821,6.376e-05,0.0,0 STARLINK-4177,1 53013U 22076AD  22358.30455078  .00006376  00000-0  41821-3 0  9992,2 53013  53.2169 302.6843 0002013  49.8937 310.2231 15.08851605 26618,6917.845,95.437,541.102,538.317,0.0
53013.0,STARLINK-4177,PAYLOAD,2022-12-24 13:40:05,15.08854498,0.0001923,53.2173,301.495,48.1071,312.0085,0.00047741,7.321e-05,0.0,0 STARLINK-4177,1 53013U 22076AD  22358.56950855  .00007321  00000-0  47741-3 0  9991,2 53013  53.2173 301.4950 0001923  48.1071 312.0085 15.08854498 26181,6917.8359999999975,95.437,541.031,538.371,0.0
53013.0,STARLINK-4177,PAYLOAD,2022-12-25 05:33:57,15.08840946,0.0001951,53.2173,298.5215,50.386,309.7304,8.3416e-05,1.04e-05,0.0,0 STARLINK-4177,1 53013U 22076AD  22359.23191294  .00001040  00000-0  83416-4 0  9992,2 53013  53.2173 298.5215 0001951  50.3860 309.7304 15.08840946 26756,6917.877,95.437,541.092,538.393,0.0
53013.0,STARLINK-4177,PAYLOAD,2022-12-25 19:52:25,15.08838973,0.0001975,53.2172,295.8451,51.1594,308.9574,3.3954e-05,2.52e-06,0.0,0 STARLINK-4177,1 53013U 22076AD  22359.82807498  .00000252  00000-0  33954-4 0  9993,2 53013  53.2172 295.8451 0001975  51.1594 308.9574 15.08838973 26371,6917.884,95.438,541.115,538.382,0.0
53013.0,STARLINK-4177,PAYLOAD,2022-12-26 13:21:40,15.08843711,0.0001905,53.2171,292.5742,51.7874,308.329,8.0702e-05,9.97e-06,0.0,0 STARLINK-4177,1 53013U 22076AD  22360.55671334  .00000997  00000-0  80702-4 0  9992,2 53013  53.2171 292.5742 0001905  51.7874 308.3290 15.08843711 26484,6917.869000000002,95.437,541.052,538.4159999999998,0.0
53013.0,STARLINK-4177,PAYLOAD,2022-12-26 19:43:12,15.08852118,0.0002008,53.217,291.3846,52.7663,307.3513,-7.5633e-05,-1.492e-05,0.0,0 STARLINK-4177,1 53013U 22076AD  22360.82166800 -.00001492  00000-0 -75633-4 0  9999,2 53013  53.2170 291.3846 0002008  52.7663 307.3513 15.08852118 26991,6917.843000000003,95.437,541.097,538.319,0.0
53013.0,STARLINK-4177,PAYLOAD,2022-12-27 05:15:31,15.08851406,0.0001963,53.2168,289.601,51.8481,308.2688,0.00029225,4.368e-05,0.0,0 STARLINK-4177,1 53013U 22076AD  22361.21910942  .00004368  00000-0  29225-3 0  9995,2 53013  53.2168 289.6010 0001963  51.8481 308.2688 15.08851406 26585,6917.846,95.437,541.068,538.3530000000002,0.0
53013.0,STARLINK-4177,PAYLOAD,2022-12-27 19:33:58,15.08864812,0.0001976,53.2166,286.9251,50.5649,309.5518,0.00046379,7.106e-05,0.0,0 STARLINK-4177,1 53013U 22076AD  22361.81526067  .00007106  00000-0  46379-3 0  9994,2 53013  53.2166 286.9251 0001976  50.5649 309.5518 15.08864812 26677,6917.805,95.436,541.0369999999998,538.303,0.0
53013.0,STARLINK-4177,PAYLOAD,2022-12-27 22:44:44,15.08868796,0.0001971,53.2166,286.3304,50.1953,309.9213,0.00050982,7.841e-05,0.0,0 STARLINK-4177,1 53013U 22076AD  22361.94773759  .00007841  00000-0  50982-3 0  9991,2 53013  53.2166 286.3304 0001971  50.1953 309.9213 15.08868796 27165,6917.792,95.436,541.021,538.294,0.0
53013.0,STARLINK-4177,PAYLOAD,2022-12-28 05:06:16,15.08865573,0.0002005999999999,53.2165,285.1415,49.3303,310.7863,0.00033203,5.004e-05,0.0,0 STARLINK-4177,1 53013U 22076AD  22362.21269462  .00005004  00000-0  33203-3 0  9999,2 53013  53.2165 285.1415 0002006  49.3303 310.7863 15.08865573 26736,6917.802,95.436,541.055,538.28,0.0
53013.0,STARLINK-4177,PAYLOAD,2022-12-29 04:57:04,15.08827275,0.0001924,53.2165,280.6812,43.9366,316.1779,-0.00040427,-6.714e-05,0.0,0 STARLINK-4177,1 53013U 22076AD  22363.20630514 -.00006714  00000-0 -40427-3 0  9996,2 53013  53.2165 280.6812 0001924  43.9366 316.1779 15.08827275 27356,6917.919,95.438,541.115,538.453,0.0
53013.0,STARLINK-4177,PAYLOAD,2022-12-29 11:18:38,15.08817925,0.0001974,53.2165,279.4917,43.4909,316.6238,-0.00045612,-7.536e-05,0.0,0 STARLINK-4177,1 53013U 22076AD  22363.47127327 -.00007536  00000-0 -45612-3 0  9992,2 53013  53.2165 279.4917 0001974  43.4909 316.6238 15.08817925 27391,6917.948,95.439,541.178,538.447,0.0
53013.0,STARLINK-4177,PAYLOAD,2022-12-30 11:09:26,15.08826524,0.0001851,53.218,275.0298,49.0469,311.0683,2.3391e-05,8.4e-07,0.0,0 STARLINK-4177,1 53013U 22076AD  22364.46488503  .00000084  00000-0  23391-4 0  9998,2 53013  53.2180 275.0298 0001851  49.0469 311.0683 15.08826524 27544,6917.922,95.438,541.067,538.506,0.0
53013.0,STARLINK-4177,PAYLOAD,2022-12-31 03:03:16,15.08855629,0.0002073,53.2163,272.0578,46.8257,313.2908,0.00063339,9.811e-05,0.0,0 STARLINK-4177,1 53013U 22076AD  22365.12727279  .00009811  00000-0  63339-3 0  9990,2 53013  53.2163 272.0578 0002073  46.8257 313.2908 15.08855629 27643,6917.833000000001,95.437,541.132,538.264,0.0
53013.0,STARLINK-4177,PAYLOAD,2022-12-31 18:57:07,15.08853052,0.0001959,53.2175,269.0827,53.1804,306.9367,0.00044296,6.771e-05,0.0,0 STARLINK-4177,1 53013U 22076AD  22365.78967037  .00006771  00000-0  44296-3 0  9993,2 53013  53.2175 269.0827 0001959  53.1804 306.9367 15.08853052 27275,6917.84,95.437,541.061,538.35,0.0
53013.0,STARLINK-4177,PAYLOAD,2023-01-01 06:04:50,15.08829718,0.0001885999999999,53.2174,267.0031,46.3423,313.7725,9.8276e-05,1.276e-05,0.0,0 STARLINK-4177,1 53013U 22076AD  23001.25336237  .00001276  00000-0  98276-4 0  9998,2 53013  53.2174 267.0031 0001886  46.3423 313.7725 15.08829718 27815,6917.9119999999975,95.438,541.082,538.472,0.0
53013.0,STARLINK-4177,PAYLOAD,2023-01-01 20:23:20,15.08830412,0.0002031,53.217,264.3264,51.0749,309.0424,-0.00027911,-4.726e-05,0.0,0 STARLINK-4177,1 53013U 22076AD  23001.84953847 -.00004726  00000-0 -27911-3 0  9997,2 53013  53.2170 264.3264 0002031  51.0749 309.0424 15.08830412 27431,6917.91,95.438,541.18,538.37,0.0
53013.0,STARLINK-4177,PAYLOAD,2023-01-02 02:44:52,15.08834603,0.0001947,53.2173,263.136,49.5792,310.5370000000001,-0.00028395,-4.804e-05,0.0,0 STARLINK-4177,1 53013U 22076AD  23002.11449709 -.00004804  00000-0 -28395-3 0  9999,2 53013  53.2173 263.1360 0001947  49.5792 310.5370 15.08834603 27942,6917.897,95.438,541.109,538.415,0.0
53013.0,STARLINK-4177,PAYLOAD,2023-01-02 10:41:47,15.088375,0.0001871,53.2175,261.6494,48.6777,311.4376,-0.00015842,-2.808e-05,0.0,0 STARLINK-4177,1 53013U 22076AD  23002.44569212 -.00002808  00000-0 -15842-3 0  9992,2 53013  53.2175 261.6494 0001871  48.6777 311.4376 15.08837500 27994,6917.888000000001,95.438,541.047,538.4590000000002,0.0
53013.0,STARLINK-4177,PAYLOAD,2023-01-02 20:14:06,15.08831053,0.0001869,53.2171,259.8661,42.5548,317.5588,7.192e-05,8.56e-06,0.0,0 STARLINK-4177,1 53013U 22076AD  23002.84312941  .00000856  00000-0  71920-4 0  9990,2 53013  53.2171 259.8661 0001869  42.5548 317.5588 15.08831053 27585,6917.908,95.438,541.066,538.48,0.0
53013.0,STARLINK-4177,PAYLOAD,2023-01-03 02:35:38,15.08835807,0.0001868,53.217,258.6765,46.3343,313.7804,0.00013868,1.919e-05,0.0,0 STARLINK-4177,1 53013U 22076AD  23003.10808683  .00001919  00000-0  13868-3 0  9990,2 53013  53.2170 258.6765 0001868  46.3343 313.7804 15.08835807 28097,6917.893,95.438,541.05,538.466,0.0
53013.0,STARLINK-4177,PAYLOAD,2023-01-03 10:32:34,15.08843825,0.0001953,53.2171,257.1894,46.6607,313.4547,0.00021769,3.178e-05,0.0,0 STARLINK-4177,1 53013U 22076AD  23003.43928256  .00003178  00000-0  21769-3 0  9993,2 53013  53.2171 257.1894 0001953  46.6607 313.4547 15.08843825 27679,6917.869000000002,95.437,541.085,538.383,0.0
53013.0,STARLINK-4177,PAYLOAD,2023-01-03 23:15:40,15.08838126,0.0001953,53.2164,254.8109,46.1502,313.9652,0.0003168999999999,4.759e-05,0.0,0 STARLINK-4177,1 53013U 22076AD  23003.96921596  .00004759  00000-0  31690-3 0  9991,2 53013  53.2164 254.8109 0001953  46.1502 313.9652 15.08838126 28225,6917.886,95.438,541.102,538.4,0.0
53013.0,STARLINK-4177,PAYLOAD,2023-01-04 23:06:26,15.08858016,0.000199,53.2167,250.3511,44.7323,315.3829,0.00022852,3.352e-05,0.0,0 STARLINK-4177,1 53013U 22076AD  23004.96280117  .00003352  00000-0  22852-3 0  9997,2 53013  53.2167 250.3511 0001990  44.7323 315.3829 15.08858016 28370,6917.825,95.436,541.067,538.314,0.0
53013.0,STARLINK-4177,PAYLOAD,2023-01-05 08:38:44,15.0886112,0.0001931,53.2165,248.5675,45.8308,314.2843,0.00020563,2.988e-05,0.0,0 STARLINK-4177,1 53013U 22076AD  23005.36023475  .00002988  00000-0  20563-3 0  9995,2 53013  53.2165 248.5675 0001931  45.8308 314.2843 15.08861120 27966,6917.816,95.436,541.0169999999998,538.345,0.0
53013.0,STARLINK-4177,PAYLOAD,2023-01-05 16:35:39,15.08858847,0.0001972,53.2165,247.082,47.9333,312.1826,0.00021149,3.081e-05,0.0,0 STARLINK-4177,1 53013U 22076AD  23005.69143214  .00003081  00000-0  21149-3 0  9991,2 53013  53.2165 247.0820 0001972  47.9333 312.1826 15.08858847 28015,6917.823,95.436,541.052,538.3240000000002,0.0
53013.0,STARLINK-4177,PAYLOAD,2023-01-06 14:51:04,15.08832787,0.0002084,53.2157,242.9149,41.1948,318.9201,-0.00032642,-5.479e-05,0.0,0 STARLINK-4177,1 53013U 22076AD  23006.61880273 -.00005479  00000-0 -32642-3 0  9992,2 53013  53.2157 242.9149 0002084  41.1948 318.9201 15.08832787 28620,6917.901999999999,95.438,541.2090000000002,538.326,0.0
